{
  "type": "FeatureCollection",
  "features": [
    {
      "type": "Feature",
      "properties": {
        "norad_id": 35032,
        "name": "COSMOS 2251 DEB",
        "group": "cosmos-2251-debris",
        "lat": -73.0390910913447,
        "lon": -85.82499174498922,
        "alt_km": 662.2412608624536,
        "timestamp": "2025-12-04T21:36:16.267778+00:00",
        "meta_object_name": "COSMOS 2251 DEB",
        "meta_object_id": "1993-036AGV",
        "meta_epoch": "2025-12-03T03:23:36.974688",
        "meta_mean_motion": 14.58586985,
        "meta_eccentricity": 0.00689454,
        "meta_inclination": 73.8527,
        "meta_ra_of_asc_node": 25.7636,
        "meta_arg_of_pericenter": 238.5803,
        "meta_mean_anomaly": 154.2077,
        "meta_ephemeris_type": 0,
        "meta_classification_type": "U",
        "meta_norad_cat_id": 35032,
        "meta_element_set_no": 999,
        "meta_rev_at_epoch": 87534,
        "meta_bstar": 0.0014295632,
        "meta_mean_motion_dot": 6.849e-05,
        "meta_mean_motion_ddot": 0,
        "tle_line1": "1 35032U 93036AGV 25337.14140017  .00006849  00000+0  14296-2 0  9992",
        "tle_line2": "2 35032  73.8527  25.7636 0068945 238.5803 154.2077 14.58586985875349"
      },
      "geometry": {
        "type": "Point",
        "coordinates": [
          -85.82499174498922,
          -73.0390910913447
        ]
      }
    },
    {
      "type": "Feature",
      "properties": {
        "norad_id": 35033,
        "name": "COSMOS 2251 DEB",
        "group": "cosmos-2251-debris",
        "lat": 31.19715613016469,
        "lon": 1.3403782250474432,
        "alt_km": 729.6094189461546,
        "timestamp": "2025-12-04T21:36:16.267789+00:00",
        "meta_object_name": "COSMOS 2251 DEB",
        "meta_object_id": "1993-036AGW",
        "meta_epoch": "2025-12-01T21:46:02.380800",
        "meta_mean_motion": 14.50844438,
        "meta_eccentricity": 0.00143855,
        "meta_inclination": 74.0263,
        "meta_ra_of_asc_node": 196.9584,
        "meta_arg_of_pericenter": 303.7279,
        "meta_mean_anomaly": 56.251,
        "meta_ephemeris_type": 0,
        "meta_classification_type": "U",
        "meta_norad_cat_id": 35033,
        "meta_element_set_no": 999,
        "meta_rev_at_epoch": 65770,
        "meta_bstar": 0.00069994659,
        "meta_mean_motion_dot": 2.736e-05,
        "meta_mean_motion_ddot": 0,
        "tle_line1": "1 35033U 93036AGW 25335.90697200  .00002736  00000+0  69995-3 0  9994",
        "tle_line2": "2 35033  74.0263 196.9584 0014385 303.7279  56.2510 14.50844438657707"
      },
      "geometry": {
        "type": "Point",
        "coordinates": [
          1.3403782250474432,
          31.19715613016469
        ]
      }
    },
    {
      "type": "Feature",
      "properties": {
        "norad_id": 35037,
        "name": "COSMOS 2251 DEB",
        "group": "cosmos-2251-debris",
        "lat": 10.455949502424062,
        "lon": 155.89465702227,
        "alt_km": 268.6088614593882,
        "timestamp": "2025-12-04T21:36:16.267799+00:00",
        "meta_object_name": "COSMOS 2251 DEB",
        "meta_object_id": "1993-036AHA",
        "meta_epoch": "2025-11-07T11:23:37.197312",
        "meta_mean_motion": 15.53719687,
        "meta_eccentricity": 0.0010282,
        "meta_inclination": 73.9601,
        "meta_ra_of_asc_node": 214.7185,
        "meta_arg_of_pericenter": 129.4999,
        "meta_mean_anomaly": 230.7127,
        "meta_ephemeris_type": 0,
        "meta_classification_type": "U",
        "meta_norad_cat_id": 35037,
        "meta_element_set_no": 999,
        "meta_rev_at_epoch": 66656,
        "meta_bstar": 0.0068953187,
        "meta_mean_motion_dot": 0.00469331,
        "meta_mean_motion_ddot": 0,
        "tle_line1": "1 35037U 93036AHA 25311.47473608  .00469331  00000+0  68953-2 0  9998",
        "tle_line2": "2 35037  73.9601 214.7185 0010282 129.4999 230.7127 15.53719687666563"
      },
      "geometry": {
        "type": "Point",
        "coordinates": [
          155.89465702227,
          10.455949502424062
        ]
      }
    },
    {
      "type": "Feature",
      "properties": {
        "norad_id": 35038,
        "name": "COSMOS 2251 DEB",
        "group": "cosmos-2251-debris",
        "lat": 54.736309890153,
        "lon": -147.09406236061344,
        "alt_km": 786.3072852649348,
        "timestamp": "2025-12-04T21:36:16.267809+00:00",
        "meta_object_name": "COSMOS 2251 DEB",
        "meta_object_id": "1993-036AHB",
        "meta_epoch": "2025-12-02T22:25:29.053056",
        "meta_mean_motion": 14.25054791,
        "meta_eccentricity": 0.01136239,
        "meta_inclination": 74.1068,
        "meta_ra_of_asc_node": 60.197,
        "meta_arg_of_pericenter": 46.834,
        "meta_mean_anomaly": 72.6585,
        "meta_ephemeris_type": 0,
        "meta_classification_type": "U",
        "meta_norad_cat_id": 35038,
        "meta_element_set_no": 999,
        "meta_rev_at_epoch": 85429,
        "meta_bstar": 0.001245273,
        "meta_mean_motion_dot": 3.098e-05,
        "meta_mean_motion_ddot": 0,
        "tle_line1": "1 35038U 93036AHB 25336.93436404  .00003098  00000+0  12453-2 0  9998",
        "tle_line2": "2 35038  74.1068  60.1970 0113623  46.8340  72.6585 14.25054791854290"
      },
      "geometry": {
        "type": "Point",
        "coordinates": [
          -147.09406236061344,
          54.736309890153
        ]
      }
    },
    {
      "type": "Feature",
      "properties": {
        "norad_id": 35043,
        "name": "COSMOS 2251 DEB",
        "group": "cosmos-2251-debris",
        "lat": -49.16928932656235,
        "lon": 41.56654720011067,
        "alt_km": 591.8186671081448,
        "timestamp": "2025-12-04T21:36:16.267819+00:00",
        "meta_object_name": "COSMOS 2251 DEB",
        "meta_object_id": "1993-036AHG",
        "meta_epoch": "2025-12-04T12:04:43.932864",
        "meta_mean_motion": 14.76234637,
        "meta_eccentricity": 0.00985476,
        "meta_inclination": 73.9539,
        "meta_ra_of_asc_node": 61.8026,
        "meta_arg_of_pericenter": 272.4177,
        "meta_mean_anomaly": 86.5717,
        "meta_ephemeris_type": 0,
        "meta_classification_type": "U",
        "meta_norad_cat_id": 35043,
        "meta_element_set_no": 999,
        "meta_rev_at_epoch": 67297,
        "meta_bstar": 0.0098371318,
        "meta_mean_motion_dot": 0.00074481,
        "meta_mean_motion_ddot": 0,
        "tle_line1": "1 35043U 93036AHG 25338.50328626  .00074481  00000+0  98371-2 0  9992",
        "tle_line2": "2 35043  73.9539  61.8026 0098547 272.4177  86.5717 14.76234637672977"
      },
      "geometry": {
        "type": "Point",
        "coordinates": [
          41.56654720011067,
          -49.16928932656235
        ]
      }
    },
    {
      "type": "Feature",
      "properties": {
        "norad_id": 35045,
        "name": "COSMOS 2251 DEB",
        "group": "cosmos-2251-debris",
        "lat": 52.743529119006695,
        "lon": -136.04648384521002,
        "alt_km": 1019.7434105071588,
        "timestamp": "2025-12-04T21:36:16.267829+00:00",
        "meta_object_name": "COSMOS 2251 DEB",
        "meta_object_id": "1993-036AHJ",
        "meta_epoch": "2025-12-04T12:26:09.068928",
        "meta_mean_motion": 14.00359627,
        "meta_eccentricity": 0.01831927,
        "meta_inclination": 73.7195,
        "meta_ra_of_asc_node": 67.223,
        "meta_arg_of_pericenter": 310.3956,
        "meta_mean_anomaly": 48.1309,
        "meta_ephemeris_type": 0,
        "meta_classification_type": "U",
        "meta_norad_cat_id": 35045,
        "meta_element_set_no": 999,
        "meta_rev_at_epoch": 84528,
        "meta_bstar": 0.0011471676,
        "meta_mean_motion_dot": 1.937e-05,
        "meta_mean_motion_ddot": 0,
        "tle_line1": "1 35045U 93036AHJ 25338.51816052  .00001937  00000+0  11472-2 0  9993",
        "tle_line2": "2 35045  73.7195  67.2230 0183192 310.3956  48.1309 14.00359627845281"
      },
      "geometry": {
        "type": "Point",
        "coordinates": [
          -136.04648384521002,
          52.743529119006695
        ]
      }
    },
    {
      "type": "Feature",
      "properties": {
        "norad_id": 35060,
        "name": "COSMOS 2251 DEB",
        "group": "cosmos-2251-debris",
        "lat": -48.67286952116433,
        "lon": -120.14379053001754,
        "alt_km": 749.5381708614641,
        "timestamp": "2025-12-04T21:36:16.267839+00:00",
        "meta_object_name": "COSMOS 2251 DEB",
        "meta_object_id": "1993-036AHP",
        "meta_epoch": "2025-11-28T02:37:07.839264",
        "meta_mean_motion": 14.41547968,
        "meta_eccentricity": 0.00179641,
        "meta_inclination": 74.0363,
        "meta_ra_of_asc_node": 271.4275,
        "meta_arg_of_pericenter": 359.5881,
        "meta_mean_anomaly": 0.5257,
        "meta_ephemeris_type": 0,
        "meta_classification_type": "U",
        "meta_norad_cat_id": 35060,
        "meta_element_set_no": 999,
        "meta_rev_at_epoch": 87031,
        "meta_bstar": 0.0004076845,
        "meta_mean_motion_dot": 1.301e-05,
        "meta_mean_motion_ddot": 0,
        "tle_line1": "1 35060U 93036AHP 25332.10911851  .00001301  00000+0  40768-3 0  9998",
        "tle_line2": "2 35060  74.0363 271.4275 0017964 359.5881   0.5257 14.41547968870310"
      },
      "geometry": {
        "type": "Point",
        "coordinates": [
          -120.14379053001754,
          -48.67286952116433
        ]
      }
    }
  ]
}